NORAD_CAT_ID,OBJECT_NAME,OBJECT_TYPE,EPOCH,MEAN_MOTION,ECCENTRICITY,INCLINATION,RA_OF_ASC_NODE,ARG_OF_PERICENTER,MEAN_ANOMALY,BSTAR,MEAN_MOTION_DOT,MEAN_MOTION_DDOT,TLE_LINE0,TLE_LINE1,TLE_LINE2,SEMIMAJOR_AXIS,PERIOD,APOGEE,PERIGEE,DECAYED
51786.0,STARLINK-3638,PAYLOAD,2023-01-18 12:06:52,15.088942499999998,0.0001411,53.2165,94.5404,83.366,276.7493,0.002892,0.00046108,0.0,0 STARLINK-3638,1 51786U 22017U   23018.50477351  .00046108  00000-0  28920-2 0  9997,2 51786  53.2165  94.5404 0001411  83.3660 276.7493 15.08894250 49249,6917.715,95.434,540.556,538.6030000000001,0.0
51786.0,STARLINK-3638,PAYLOAD,2023-01-18 21:39:10,15.08883706,0.0001179,53.2165,92.7591,93.5127,266.6,0.0013298,0.00020964,0.0,0 STARLINK-3638,1 51786U 22017U   23018.90220645  .00020964  00000-0  13298-2 0  9997,2 51786  53.2165  92.7591 0001179  93.5127 266.6000 15.08883706 50998,6917.746999999999,95.435,540.427,538.7959999999999,0.0
51786.0,STARLINK-3638,PAYLOAD,2023-01-19 05:36:06,15.08858268,0.000101,53.2165,91.2696,98.7876,261.323,0.00036395,5.512e-05,0.0,0 STARLINK-3638,1 51786U 22017U   23019.23340320  .00005512  00000-0  36395-3 0  9993,2 51786  53.2165  91.2696 0001010  98.7876 261.3230 15.08858268 51049,6917.825,95.436,540.388,538.991,0.0
51786.0,STARLINK-3638,PAYLOAD,2023-01-19 10:22:15,15.08867528,9.91e-05,53.2164,90.3776,96.7495,263.361,0.0018637999999999,0.00029521,0.0,0 STARLINK-3638,1 51786U 22017U   23019.43212209  .00029521  00000-0  18638-2 0  9994,2 51786  53.2164  90.3776 0000991  96.7495 263.3610 15.08867528 49386,6917.795999999999,95.436,540.347,538.976,0.0
51786.0,STARLINK-3638,PAYLOAD,2023-01-19 11:57:38,15.08869958,9.36e-05,53.2164,90.0802,98.6464,261.4634,0.0023612,0.00037522,0.0,0 STARLINK-3638,1 51786U 22017U   23019.49836158  .00037522  00000-0  23612-2 0  9993,2 51786  53.2164  90.0802 0000936  98.6464 261.4634 15.08869958 51083,6917.789000000001,95.436,540.3009999999999,539.006,0.0
51786.0,STARLINK-3638,PAYLOAD,2023-01-19 23:05:20,15.08860483,0.0001519,53.2148,88.0006,73.2449,286.871,0.0012443,0.00019582,0.0,0 STARLINK-3638,1 51786U 22017U   23019.96204206  .00019582  00000-0  12443-2 0  9994,2 51786  53.2148  88.0006 0001519  73.2449 286.8710 15.08860483 51156,6917.818,95.436,540.734,538.632,0.0
51786.0,STARLINK-3638,PAYLOAD,2023-01-20 11:48:26,15.08838711,0.0001022999999999,53.2161,85.6205,68.9662,291.1439,0.0020464,0.00032429,0.0,0 STARLINK-3638,1 51786U 22017U   23020.49196762  .00032429  00000-0  20464-2 0  9998,2 51786  53.2161  85.6205 0001023  68.9662 291.1439 15.08838711 51238,6917.884,95.438,540.457,539.0419999999999,0.0
51786.0,STARLINK-3638,PAYLOAD,2023-01-20 21:20:45,15.08840758,0.000106,53.2165,83.8359,79.8192,280.29200000000003,0.0014546,0.00022938,0.0,0 STARLINK-3638,1 51786U 22017U   23020.88941064  .00022938  00000-0  14546-2 0  9992,2 51786  53.2165  83.8359 0001060  79.8192 280.2920 15.08840758 51296,6917.878000000001,95.438,540.476,539.01,0.0
51786.0,STARLINK-3638,PAYLOAD,2023-01-21 10:03:50,15.08852437,0.0001020999999999,53.2158,81.4573,82.0816,278.0292,0.0017128,0.00027086,0.0,0 STARLINK-3638,1 51786U 22017U   23021.41933163  .00027086  00000-0  17128-2 0  9991,2 51786  53.2158  81.4573 0001021  82.0816 278.0292 15.08852437 51379,6917.842,95.437,540.414,539.001,0.0
51786.0,STARLINK-3638,PAYLOAD,2023-01-21 21:11:32,15.08855691,0.000104,53.2167,79.3755,88.2099,271.9013,0.0012123,0.00019067,0.0,0 STARLINK-3638,1 51786U 22017U   23021.88301041  .00019067  00000-0  12123-2 0  9996,2 51786  53.2167  79.3755 0001040  88.2099 271.9013 15.08855691 51445,6917.831999999999,95.437,540.4169999999999,538.9780000000001,0.0
51786.0,STARLINK-3638,PAYLOAD,2023-01-22 13:05:23,15.08861278,0.0001255,53.2164,76.4009,98.9676,261.1459,0.0015203,0.00024004,0.0,0 STARLINK-3638,1 51786U 22017U   23022.54540710  .00024004  00000-0  15203-2 0  9997,2 51786  53.2164  76.4009 0001255  98.9676 261.1459 15.08861278 51543,6917.815,95.436,540.549,538.812,0.0
51786.0,STARLINK-3638,PAYLOAD,2023-01-22 21:02:19,15.08839574,0.0001682,53.2166,74.915,78.0276,282.0905,0.00063902,9.896e-05,0.0,0 STARLINK-3638,1 51786U 22017U   23022.87661334  .00009896  00000-0  63902-3 0  9991,2 51786  53.2166  74.9150 0001682  78.0276 282.0905 15.08839574 51591,6917.882,95.438,540.91,538.5830000000001,0.0
51786.0,STARLINK-3638,PAYLOAD,2023-01-24 06:25:25,15.08841787,0.0001513,53.2169,68.6669,84.3323,275.7842,0.00093204,0.00014577,0.0,0 STARLINK-3638,1 51786U 22017U   23024.26765971  .00014577  00000-0  93204-3 0  9998,2 51786  53.2169  68.6669 0001513  84.3323 275.7842 15.08841787 51807,6917.875,95.437,540.7869999999999,538.693,0.0
51786.0,STARLINK-3638,PAYLOAD,2023-01-25 06:16:12,15.08838123,0.0001378,53.2163,64.2073,106.3738,253.7405,0.00017792,2.545e-05,0.0,0 STARLINK-3638,1 51786U 22017U   23025.26126113  .00002545  00000-0  17792-3 0  9998,2 51786  53.2163  64.2073 0001378 106.3738 253.7405 15.08838123 51953,6917.886,95.438,540.7040000000001,538.798,0.0
51786.0,STARLINK-3638,PAYLOAD,2023-01-25 11:02:22,15.08845307,0.0001219,53.2169,63.3163,86.4715,273.6417,0.00029253,4.371e-05,0.0,0 STARLINK-3638,1 51786U 22017U   23025.45997947  .00004371  00000-0  29253-3 0  9994,2 51786  53.2169  63.3163 0001219  86.4715 273.6417 15.08845307 50298,6917.8640000000005,95.437,540.572,538.886,0.0
51786.0,STARLINK-3638,PAYLOAD,2023-01-25 18:59:18,15.08840573,0.0001198,53.2166,61.8296,86.6978,273.4151,0.00016849,2.395e-05,0.0,0 STARLINK-3638,1 51786U 22017U   23025.79118118  .00002395  00000-0  16849-3 0  9997,2 51786  53.2166  61.8296 0001198  86.6978 273.4151 15.08840573 50343,6917.879,95.438,540.572,538.915,0.0
51786.0,STARLINK-3638,PAYLOAD,2023-01-26 06:06:59,15.08843705,0.0001315,53.216,59.7486,97.6367,262.4775,0.00016406,2.324e-05,0.0,0 STARLINK-3638,1 51786U 22017U   23026.25485990  .00002324  00000-0  16406-3 0  9995,2 51786  53.2160  59.7486 0001315  97.6367 262.4775 15.08843705 50417,6917.869000000001,95.437,540.644,538.8240000000001,0.0
51786.0,STARLINK-3638,PAYLOAD,2023-01-27 01:11:37,15.088475400000002,0.0001964,53.2167,56.1792,84.6504,275.4712,0.00017018,2.422e-05,0.0,0 STARLINK-3638,1 51786U 22017U   23027.04973905  .00002422  00000-0  17018-3 0  9990,2 51786  53.2167  56.1792 0001964  84.6504 275.4712 15.08847540 52221,6917.857,95.437,541.081,538.364,0.0
51786.0,STARLINK-3638,PAYLOAD,2023-01-27 09:08:33,15.088416,0.0001220999999999,53.2172,54.6937,91.3694,268.7438,5.7794e-05,6.32e-06,0.0,0 STARLINK-3638,1 51786U 22017U   23027.38093908  .00000632  00000-0  57794-4 0  9990,2 51786  53.2172  54.6937 0001221  91.3694 268.7438 15.08841600 50580,6917.875,95.437,540.585,538.896,0.0
51786.0,STARLINK-3638,PAYLOAD,2023-01-28 08:59:20,15.08842569,0.000131,53.2167,50.2326,93.0313,267.0829,0.00014561,2.03e-05,0.0,0 STARLINK-3638,1 51786U 22017U   23028.37454158  .00002030  00000-0  14561-3 0  9996,2 51786  53.2167  50.2326 0001310  93.0313 267.0829 15.08842569 50732,6917.873,95.437,540.644,538.831,0.0
51786.0,STARLINK-3638,PAYLOAD,2023-01-29 05:39:21,15.08847686,0.0001348,53.2167,46.3667,89.1446,270.97,0.00030712,4.604e-05,0.0,0 STARLINK-3638,1 51786U 22017U   23029.23566089  .00004604  00000-0  30712-3 0  9994,2 51786  53.2167  46.3667 0001348  89.1446 270.9700 15.08847686 52558,6917.857,95.437,540.654,538.789,0.0
51786.0,STARLINK-3638,PAYLOAD,2023-01-29 18:22:26,15.08838453,0.0001382,53.2165,43.9872,86.3351,273.78,0.00014069,1.952e-05,0.0,0 STARLINK-3638,1 51786U 22017U   23029.76558425  .00001952  00000-0  14069-3 0  9997,2 51786  53.2165  43.9872 0001382  86.3351 273.7800 15.08838453 52632,6917.885,95.438,540.706,538.794,0.0
51786.0,STARLINK-3638,PAYLOAD,2023-01-30 07:05:31,15.08837652,0.0001365,53.2168,41.6081,89.3694,270.7455,3.6398e-05,2.91e-06,0.0,0 STARLINK-3638,1 51786U 22017U   23030.29550549  .00000291  00000-0  36398-4 0  9991,2 51786  53.2168  41.6081 0001365  89.3694 270.7455 15.08837652 51021,6917.888,95.438,540.697,538.808,0.0
51786.0,STARLINK-3638,PAYLOAD,2023-01-30 19:48:36,15.08842291,0.0001323,53.2175,39.2291,90.1977,269.9167,6.2748e-05,7.11e-06,0.0,0 STARLINK-3638,1 51786U 22017U   23030.82542307  .00000711  00000-0  62748-4 0  9998,2 51786  53.2175  39.2291 0001323  90.1977 269.9167 15.08842291 51107,6917.873,95.437,540.654,538.823,0.0
51786.0,STARLINK-3638,PAYLOAD,2023-01-30 22:59:22,15.08828133,0.0001437,53.2175,38.634,93.1604,266.9553,0.00028135,4.191e-05,0.0,0 STARLINK-3638,1 51786U 22017U   23030.95790388  .00004191  00000-0  28135-3 0  9993,2 51786  53.2175  38.6340 0001437  93.1604 266.9553 15.08828133 52815,6917.917,95.438,540.776,538.788,0.0
51786.0,STARLINK-3638,PAYLOAD,2023-01-31 06:56:18,15.08831939,0.0001413,53.2177,37.1475,91.0477,269.0677,0.00029379,4.39e-05,0.0,0 STARLINK-3638,1 51786U 22017U   23031.28910248  .00004390  00000-0  29379-3 0  9991,2 51786  53.2177  37.1475 0001413  91.0477 269.0677 15.08831939 51176,6917.905,95.438,540.748,538.793,0.0
51786.0,STARLINK-3638,PAYLOAD,2023-01-31 21:14:46,15.08836075,0.000128,53.2177,34.472,86.8301,273.2837,0.00011917,1.609e-05,0.0,0 STARLINK-3638,1 51786U 22017U   23031.88526210  .00001609  00000-0  11917-3 0  9998,2 51786  53.2177  34.4720 0001280  86.8301 273.2837 15.08836075 51260,6917.892,95.438,540.643,538.872,0.0
51786.0,STARLINK-3638,PAYLOAD,2023-02-01 06:47:05,15.08840082,0.0001325,53.2178,32.6875,87.2775,272.8368,0.00012663,1.728e-05,0.0,0 STARLINK-3638,1 51786U 22017U   23032.28270001  .00001728  00000-0  12663-3 0  9998,2 51786  53.2178  32.6875 0001325  87.2775 272.8368 15.08840082 53014,6917.88,95.438,540.662,538.829,0.0
51786.0,STARLINK-3638,PAYLOAD,2023-02-02 03:27:06,15.0883484,0.0001353,53.2179,28.8222,88.3746,271.7401,-9.1523e-06,-4.34e-06,0.0,0 STARLINK-3638,1 51786U 22017U   23033.14382890 -.00000434  00000-0 -91523-5 0  9993,2 51786  53.2179  28.8222 0001353  88.3746 271.7401 15.08834840 53144,6917.896,95.438,540.697,538.825,0.0
